NORAD_CAT_ID,OBJECT_NAME,OBJECT_TYPE,EPOCH,MEAN_MOTION,ECCENTRICITY,INCLINATION,RA_OF_ASC_NODE,ARG_OF_PERICENTER,MEAN_ANOMALY,BSTAR,MEAN_MOTION_DOT,MEAN_MOTION_DDOT,TLE_LINE0,TLE_LINE1,TLE_LINE2,SEMIMAJOR_AXIS,PERIOD,APOGEE,PERIGEE,DECAYED
55404.0,STARLINK-5607,PAYLOAD,2023-02-07 16:00:01,15.71583102,0.0004379,70.0081,70.0786,268.7022,313.9287,-0.0078287,-0.0090718,0.0,0 STARLINK-5607,1 55404U 23014P   23038.66668981 -.00907180  00000-0 -78287-2 0  9995,2 55404  70.0081  70.0786 0004379 268.7022 313.9287 15.71583102  1304,6732.509,91.627,357.322,351.426,0.0
55404.0,STARLINK-5607,PAYLOAD,2023-02-07 22:00:00,15.70991758,0.0002124,70.0081,69.3736,263.7677,293.0462,-0.010557,-0.0117787,0.0,0 STARLINK-5607,1 55404U 23014P   23038.91667824 -.01177870  00000-0 -10557-1 0  9999,2 55404  70.0081  69.3736 0002124 263.7677 293.0462 15.70991758  1332,6734.198,91.662,357.494,354.633,0.0
55404.0,STARLINK-5607,PAYLOAD,2023-02-08 06:00:00,15.69984308,0.0004448,70.0076,68.4351,274.2938,7.1559,-0.0022645,-0.0026485,0.0,0 STARLINK-5607,1 55404U 23014P   23039.25001157 -.00264850  00000-0 -22645-2 0  9994,2 55404  70.0076  68.4351 0004448 274.2938   7.1559 15.69984308  1395,6737.079,91.721,361.941,355.947,0.0
55404.0,STARLINK-5607,PAYLOAD,2023-02-08 14:00:01,15.69861316,0.0002383,70.0069,67.4978,279.0583,86.0266,-0.00038843,-0.0004653,0.0,0 STARLINK-5607,1 55404U 23014P   23039.58334491 -.00046530  00000-0 -38843-3 0  9991,2 55404  70.0069  67.4978 0002383 279.0583  86.0266 15.69861316  1446,6737.431,91.728,360.901,357.69,0.0
55404.0,STARLINK-5607,PAYLOAD,2023-02-08 20:00:01,15.69812891,0.0003679,70.008,66.7951,265.296,72.3411,-4.2815e-06,-7.25e-06,0.0,0 STARLINK-5607,1 55404U 23014P   23039.83334491 -.00000725  00000-0 -42815-5 0  9991,2 55404  70.0080  66.7951 0003679 265.2960  72.3411 15.69812891  1485,6737.569,91.731,361.913,356.956,0.0
55404.0,STARLINK-5607,PAYLOAD,2023-02-09 12:00:00,15.69804691,0.0003657,70.0061,64.922,272.5294,231.5262,0.00045819,0.00054973,0.0,0 STARLINK-5607,1 55404U 23014P   23040.50001157  .00054973  00000-0  45819-3 0  9994,2 55404  70.0061  64.9220 0003657 272.5294 231.5262 15.69804691  1303,6737.593,91.731,361.922,356.994,0.0
55404.0,STARLINK-5607,PAYLOAD,2023-02-09 20:00:01,15.69787128,0.0003314,70.0066,63.9851,267.7669,319.5806,0.00060741,0.00073045,0.0,0 STARLINK-5607,1 55404U 23014P   23040.83334491  .00073045  00000-0  60741-3 0  9992,2 55404  70.0066  63.9851 0003314 267.7669 319.5806 15.69787128  1642,6737.643,91.732,361.741,357.275,0.0
55404.0,STARLINK-5607,PAYLOAD,2023-02-09 22:00:00,15.69784688,0.0003364,70.0059,63.7509,265.929,72.2196,0.00090806,0.00109778,0.0,0 STARLINK-5607,1 55404U 23014P   23040.91667824  .00109778  00000-0  90806-3 0  9998,2 55404  70.0059  63.7509 0003364 265.9290  72.2196 15.69784688  1303,6737.65,91.732,361.782,357.248,0.0
55404.0,STARLINK-5607,PAYLOAD,2023-02-10 04:00:00,15.69880047,0.000338,70.0046,63.0483,266.949,43.596,-0.00037834,-0.00045377,0.0,0 STARLINK-5607,1 55404U 23014P   23041.16667824 -.00045377  00000-0 -37834-3 0  9994,2 55404  70.0046  63.0483 0003380 266.9490  43.5960 15.69880047  1300,6737.377,91.727,361.519,356.965,0.0
55404.0,STARLINK-5607,PAYLOAD,2023-02-10 16:00:00,15.69884567,0.000319,70.0011,61.6429,268.2985,347.1418,-0.00052111,-0.00062305,0.0,0 STARLINK-5607,1 55404U 23014P   23041.66667824 -.00062305  00000-0 -52111-3 0  9994,2 55404  70.0011  61.6429 0003190 268.2985 347.1418 15.69884567  1772,6737.364,91.726,361.378,357.08,0.0
55404.0,STARLINK-5607,PAYLOAD,2023-02-10 22:00:00,15.69799042,0.0003265,70.0005,60.9403,262.051,325.8437,0.00088333,0.00106806,0.0,0 STARLINK-5607,1 55404U 23014P   23041.91667824  .00106806  00000-0  88333-3 0  9990,2 55404  70.0005  60.9403 0003265 262.0510 325.8437 15.69799042  1304,6737.609,91.731,361.674,357.274,0.0
55404.0,STARLINK-5607,PAYLOAD,2023-02-11 06:00:00,15.69902752,0.0003279,70.0,60.0034,265.2617,45.8758,-0.00054228,-0.00064858,0.0,0 STARLINK-5607,1 55404U 23014P   23042.25001157 -.00064858  00000-0 -54228-3 0  9997,2 55404  70.0000  60.0034 0003279 265.2617  45.8758 15.69902752  1868,6737.312,91.725,361.386,356.968,0.0
55404.0,STARLINK-5607,PAYLOAD,2023-02-11 14:00:01,15.6986051,0.0003289,69.999,59.0662,265.6578,128.7609,-0.00030751,-0.00036929,0.0,0 STARLINK-5607,1 55404U 23014P   23042.58334491 -.00036929  00000-0 -30751-3 0  9996,2 55404  69.9990  59.0662 0003289 265.6578 128.7609 15.69860510  1309,6737.433,91.728,361.514,357.082,0.0
55404.0,STARLINK-5607,PAYLOAD,2023-02-11 22:00:00,15.69808056,0.0003352,69.999,58.129,256.9067,220.7721,0.00094621,0.00114575,0.0,0 STARLINK-5607,1 55404U 23014P   23042.91667824  .00114575  00000-0  94621-3 0  9990,2 55404  69.9990  58.1290 0003352 256.9067 220.7721 15.69808056  1960,6737.583,91.731,361.707,357.19,0.0
55404.0,STARLINK-5607,PAYLOAD,2023-02-12 00:00:00,15.69843112,0.0003334,69.9991,57.8948,256.6094,331.868,0.0006002,0.00072338,0.0,0 STARLINK-5607,1 55404U 23014P   23043.00001157  .00072338  00000-0  60020-3 0  9998,2 55404  69.9991  57.8948 0003334 256.6094 331.8680 15.69843112  1986,6737.483,91.729,361.594,357.102,0.0
55404.0,STARLINK-5607,PAYLOAD,2023-02-12 22:00:00,15.69834342,0.0003157,69.9995,55.3177,259.9767,107.5101,0.0012757,0.00155471,0.0,0 STARLINK-5607,1 55404U 23014P   23043.91667824  .00155471  00000-0  12757-2 0  9990,2 55404  69.9995  55.3177 0003157 259.9767 107.5101 15.69834342  2121,6737.508,91.729,361.5,357.246,0.0
55404.0,STARLINK-5607,PAYLOAD,2023-02-13 06:00:00,15.69933448,0.0003283,69.9998,54.3806,264.7302,186.0497,-0.00025728,-0.00031046,0.0,0 STARLINK-5607,1 55404U 23014P   23044.25001157 -.00031046  00000-0 -25728-3 0  9995,2 55404  69.9998  54.3806 0003283 264.7302 186.0497 15.69933448  2173,6737.224,91.724,361.301,356.878,0.0
55404.0,STARLINK-5607,PAYLOAD,2023-02-13 14:00:01,15.69905526,0.0003407,69.9992,53.4434,269.2252,264.8914,0.00013034,0.00015476,0.0,0 STARLINK-5607,1 55404U 23014P   23044.58334491  .00015476  00000-0  13034-3 0  9995,2 55404  69.9992  53.4434 0003407 269.2252 264.8914 15.69905526  1305,6737.304,91.725,361.465,356.874,0.0
55404.0,STARLINK-5607,PAYLOAD,2023-02-13 22:00:00,15.69909404,0.0003528,69.9994,52.5061,264.5506,352.8928,0.00051786,0.00062484,0.0,0 STARLINK-5607,1 55404U 23014P   23044.91667824  .00062484  00000-0  51786-3 0  9998,2 55404  69.9994  52.5061 0003528 264.5506 352.8928 15.69909404  2287,6737.293,91.725,361.535,356.781,0.0
55404.0,STARLINK-5607,PAYLOAD,2023-02-14 00:00:00,15.69946005,0.0003497,69.9996,52.2719,265.5041,102.7647,-4.7304e-05,-5.902e-05,0.0,0 STARLINK-5607,1 55404U 23014P   23045.00001157 -.00005902  00000-0 -47304-4 0  9996,2 55404  69.9996  52.2719 0003497 265.5041 102.7647 15.69946005  2295,6737.188,91.723,361.409,356.697,0.0
55404.0,STARLINK-5607,PAYLOAD,2023-02-14 12:11:56,15.69953907,0.0004013,70.0009,50.8441,264.9864,95.0874,0.00028989,0.00034836,0.0,0 STARLINK-5607,1 55404U 23014P   23045.50829004  .00034836  00000-0  28989-3 0  9993,2 55404  70.0009  50.8441 0004013 264.9864  95.0874 15.69953907  3319,6737.166,91.722,361.734,356.327,0.0
55404.0,STARLINK-5607,PAYLOAD,2023-02-15 03:29:27,15.69928348,0.0003638,69.9993,49.0514,269.0932,90.9847,3.0671e-05,3.477e-05,0.0,0 STARLINK-5607,1 55404U 23014P   23046.14546008  .00003477  00000-0  30671-4 0  9993,2 55404  69.9993  49.0514 0003638 269.0932  90.9847 15.69928348  2474,6737.239,91.724,361.555,356.653,0.0
55404.0,STARLINK-5607,PAYLOAD,2023-02-15 12:39:58,15.69926201,0.0003689,69.9992,47.9761,269.8847,90.1926,3.8621e-05,4.434e-05,0.0,0 STARLINK-5607,1 55404U 23014P   23046.52776087  .00004434  00000-0  38621-4 0  9994,2 55404  69.9992  47.9761 0003689 269.8847  90.1926 15.69926201  3470,6737.245,91.724,361.596,356.625,0.0
55404.0,STARLINK-5607,PAYLOAD,2023-02-15 20:18:44,15.69923655,0.0003488,69.9992,47.0805,276.2611,83.8188,2.7434e-05,3.087e-05,0.0,0 STARLINK-5607,1 55404U 23014P   23046.84634580  .00003087  00000-0  27434-4 0  9993,2 55404  69.9992  47.0805 0003488 276.2611  83.8188 15.69923655  3523,6737.252,91.724,361.467,356.767,0.0
55404.0,STARLINK-5607,PAYLOAD,2023-02-16 10:04:30,15.69921646,0.0003355,69.9983,45.4679,273.629,86.4522,1.2156e-05,1.249e-05,0.0,0 STARLINK-5607,1 55404U 23014P   23047.41979645  .00001249  00000-0  12156-4 0  9994,2 55404  69.9983  45.4679 0003355 273.6290  86.4522 15.69921646  2675,6737.258,91.724,361.384,356.863,0.0
55404.0,STARLINK-5607,PAYLOAD,2023-02-16 14:39:46,15.69890408,0.0003042,69.9982,44.9301,282.5742,77.5113,-6.9541e-05,-8.554e-05,0.0,0 STARLINK-5607,1 55404U 23014P   23047.61095930 -.00008554  00000-0 -69541-4 0  9990,2 55404  69.9982  44.9301 0003042 282.5742  77.5113 15.69890408  3640,6737.348,91.726,361.262,357.163,0.0
55404.0,STARLINK-5607,PAYLOAD,2023-02-16 19:15:01,15.69900504,0.0003519,69.9984,44.3926,275.3553,84.7241,-4.1006e-05,-5.136e-05,0.0,0 STARLINK-5607,1 55404U 23014P   23047.80210606 -.00005136  00000-0 -41006-4 0  9999,2 55404  69.9984  44.3926 0003519 275.3553  84.7241 15.69900504  2738,6737.319,91.726,361.555,356.813,0.0
55404.0,STARLINK-5607,PAYLOAD,2023-02-16 20:46:46,15.6990636,0.0003329,69.9982,44.2134,270.5196,89.5618,-2.5846e-05,-3.317e-05,0.0,0 STARLINK-5607,1 55404U 23014P   23047.86582127 -.00003317  00000-0 -25846-4 0  9998,2 55404  69.9982  44.2134 0003329 270.5196  89.5618 15.69906360  3687,6737.302,91.725,361.41,356.924,0.0
55404.0,STARLINK-5607,PAYLOAD,2023-02-17 01:22:01,15.69935544,0.0003377,69.9981,43.676,269.9136,90.1673,4.7241e-05,5.474e-05,0.0,0 STARLINK-5607,1 55404U 23014P   23048.05696099  .00005474  00000-0  47241-4 0  9991,2 55404  69.9981  43.6760 0003377 269.9136  90.1673 15.69935544  2777,6737.218,91.724,361.359,356.808,0.0
55404.0,STARLINK-5607,PAYLOAD,2023-02-17 12:04:18,15.69902831,0.0003421,69.9981,42.4217,272.8035,87.2769,-4.2681e-05,-5.337e-05,0.0,0 STARLINK-5607,1 55404U 23014P   23048.50298903 -.00005337  00000-0 -42681-4 0  9996,2 55404  69.9981  42.4217 0003421 272.8035  87.2769 15.69902831  2846,6737.312,91.725,361.482,356.872,0.0
